[{"OBJECT_NAME":"STARLINK-36433","OBJECT_ID":"2026-012J","EPOCH":"2026-02-13T22:00:01.999584","MEAN_MOTION":15.42046653,"ECCENTRICITY":0.00016097,"INCLINATION":43.0009,"RA_OF_ASC_NODE":88.8517,"ARG_OF_PERICENTER":265.4543,"MEAN_ANOMALY":100.7208,"EPHEMERIS_TYPE":0,"CLASSIFICATION_TYPE":"U","NORAD_CAT_ID":67501,"ELEMENT_SET_NO":999,"REV_AT_EPOCH":525,"BSTAR":-0.049089282,"MEAN_MOTION_DOT":-0.01920209,"MEAN_MOTION_DDOT":0},{"OBJECT_NAME":"STARLINK-36552","OBJECT_ID":"2026-012L","EPOCH":"2026-02-13T22:00:01.999584","MEAN_MOTION":15.43038427,"ECCENTRICITY":0.00016335,"INCLINATION":42.9998,"RA_OF_ASC_NODE":88.7452,"ARG_OF_PERICENTER":274.8348,"MEAN_ANOMALY":134.8091,"EPHEMERIS_TYPE":0,"CLASSIFICATION_TYPE":"U","NORAD_CAT_ID":67503,"ELEMENT_SET_NO":999,"REV_AT_EPOCH":525,"BSTAR":-0.045555962,"MEAN_MOTION_DOT":-0.01850682,"MEAN_MOTION_DDOT":0},{"OBJECT_NAME":"STARLINK-36512","OBJECT_ID":"2026-012M","EPOCH":"2026-02-13T22:00:01.999584","MEAN_MOTION":15.47451367,"ECCENTRICITY":0.00019,"INCLINATION":43.0006,"RA_OF_ASC_NODE":88.8138,"ARG_OF_PERICENTER":273.3414,"MEAN_ANOMALY":107.5511,"EPHEMERIS_TYPE":0,"CLASSIFICATION_TYPE":"U","NORAD_CAT_ID":67504,"ELEMENT_SET_NO":999,"REV_AT_EPOCH":525,"BSTAR":-0.040064304,"MEAN_MOTION_DOT":-0.01891323,"MEAN_MOTION_DDOT":0},{"OBJECT_NAME":"STARLINK-36545","OBJECT_ID":"2026-012N","EPOCH":"2026-02-13T22:00:01.999584","MEAN_MOTION":15.47824118,"ECCENTRICITY":0.00016974,"INCLINATION":43.0006,"RA_OF_ASC_NODE":88.7662,"ARG_OF_PERICENTER":275.7916,"MEAN_ANOMALY":124.3348,"EPHEMERIS_TYPE":0,"CLASSIFICATION_TYPE":"U","NORAD_CAT_ID":67505,"ELEMENT_SET_NO":999,"REV_AT_EPOCH":525,"BSTAR":-0.040027575,"MEAN_MOTION_DOT":-0.01912045,"MEAN_MOTION_DDOT":0},{"OBJECT_NAME":"STARLINK-36553","OBJECT_ID":"2026-012P","EPOCH":"2026-02-13T22:00:01.999584","MEAN_MOTION":15.46600475,"ECCENTRICITY":0.00016217,"INCLINATION":43.0006,"RA_OF_ASC_NODE":88.6743,"ARG_OF_PERICENTER":277.1726,"MEAN_ANOMALY":160.2611,"EPHEMERIS_TYPE":0,"CLASSIFICATION_TYPE":"U","NORAD_CAT_ID":67506,"ELEMENT_SET_NO":999,"REV_AT_EPOCH":525,"BSTAR":-0.042023,"MEAN_MOTION_DOT":-0.01921911,"MEAN_MOTION_DDOT":0},{"OBJECT_NAME":"STARLINK-36521","OBJECT_ID":"2026-012Q","EPOCH":"2026-02-13T22:00:01.999584","MEAN_MOTION":15.47085093,"ECCENTRICITY":0.00014869,"INCLINATION":43.0001,"RA_OF_ASC_NODE":88.6598,"ARG_OF_PERICENTER":273.4774,"MEAN_ANOMALY":169.7175,"EPHEMERIS_TYPE":0,"CLASSIFICATION_TYPE":"U","NORAD_CAT_ID":67507,"ELEMENT_SET_NO":999,"REV_AT_EPOCH":525,"BSTAR":-0.040922827,"MEAN_MOTION_DOT":-0.01905368,"MEAN_MOTION_DDOT":0},{"OBJECT_NAME":"STARLINK-36526","OBJECT_ID":"2026-012R","EPOCH":"2026-02-13T22:00:01.999584","MEAN_MOTION":15.47860646,"ECCENTRICITY":0.00016296,"INCLINATION":43.0001,"RA_OF_ASC_NODE":88.6401,"ARG_OF_PERICENTER":273.9136,"MEAN_ANOMALY":176.5275,"EPHEMERIS_TYPE":0,"CLASSIFICATION_TYPE":"U","NORAD_CAT_ID":67508,"ELEMENT_SET_NO":999,"REV_AT_EPOCH":525,"BSTAR":-0.040530672,"MEAN_MOTION_DOT":-0.01935799,"MEAN_MOTION_DDOT":0},{"OBJECT_NAME":"STARLINK-36541","OBJECT_ID":"2026-012S","EPOCH":"2026-02-13T11:06:14.131584","MEAN_MOTION":15.5061944,"ECCENTRICITY":0.00010253,"INCLINATION":43.0021,"RA_OF_ASC_NODE":92.3654,"ARG_OF_PERICENTER":265.0376,"MEAN_ANOMALY":95.0367,"EPHEMERIS_TYPE":0,"CLASSIFICATION_TYPE":"U","NORAD_CAT_ID":67509,"ELEMENT_SET_NO":999,"REV_AT_EPOCH":404,"BSTAR":0.0010665847,"MEAN_MOTION_DOT":0.00062823,"MEAN_MOTION_DDOT":0},{"OBJECT_NAME":"STARLINK-36549","OBJECT_ID":"2026-012T","EPOCH":"2026-02-13T22:00:01.999584","MEAN_MOTION":15.45265437,"ECCENTRICITY":0.00014642,"INCLINATION":43.0003,"RA_OF_ASC_NODE":88.538,"ARG_OF_PERICENTER":285.7219,"MEAN_ANOMALY":203.6001,"EPHEMERIS_TYPE":0,"CLASSIFICATION_TYPE":"U","NORAD_CAT_ID":67510,"ELEMENT_SET_NO":999,"REV_AT_EPOCH":519,"BSTAR":-0.043249232,"MEAN_MOTION_DOT":-0.01891682,"MEAN_MOTION_DDOT":0},{"OBJECT_NAME":"STARLINK-36540","OBJECT_ID":"2026-012U","EPOCH":"2026-02-13T14:09:21.810528","MEAN_MOTION":15.50610776,"ECCENTRICITY":0.00017712,"INCLINATION":43.0008,"RA_OF_ASC_NODE":91.5992,"ARG_OF_PERICENTER":283.7685,"MEAN_ANOMALY":76.2978,"EPHEMERIS_TYPE":0,"CLASSIFICATION_TYPE":"U","NORAD_CAT_ID":67511,"ELEMENT_SET_NO":999,"REV_AT_EPOCH":406,"BSTAR":0.0011786954,"MEAN_MOTION_DOT":0.00069503,"MEAN_MOTION_DDOT":0},{"OBJECT_NAME":"STARLINK-36538","OBJECT_ID":"2026-012V","EPOCH":"2026-02-13T22:00:01.999584","MEAN_MOTION":15.39022177,"ECCENTRICITY":0.00012994,"INCLINATION":43.0002,"RA_OF_ASC_NODE":89.0284,"ARG_OF_PERICENTER":265.1061,"MEAN_ANOMALY":28.4131,"EPHEMERIS_TYPE":0,"CLASSIFICATION_TYPE":"U","NORAD_CAT_ID":67512,"ELEMENT_SET_NO":999,"REV_AT_EPOCH":525,"BSTAR":-0.052290302,"MEAN_MOTION_DOT":-0.01855658,"MEAN_MOTION_DDOT":0},{"OBJECT_NAME":"STARLINK-36531","OBJECT_ID":"2026-012W","EPOCH":"2026-02-13T22:00:01.999584","MEAN_MOTION":15.40460891,"ECCENTRICITY":0.00015223,"INCLINATION":43.0004,"RA_OF_ASC_NODE":88.9259,"ARG_OF_PERICENTER":258.3428,"MEAN_ANOMALY":76.7708,"EPHEMERIS_TYPE":0,"CLASSIFICATION_TYPE":"U","NORAD_CAT_ID":67513,"ELEMENT_SET_NO":999,"REV_AT_EPOCH":519,"BSTAR":-0.050296303,"MEAN_MOTION_DOT":-0.0187081,"MEAN_MOTION_DDOT":0},{"OBJECT_NAME":"STARLINK-36530","OBJECT_ID":"2026-012X","EPOCH":"2026-02-13T22:00:01.999584","MEAN_MOTION":15.41607776,"ECCENTRICITY":0.00014757,"INCLINATION":43.0011,"RA_OF_ASC_NODE":88.9513,"ARG_OF_PERICENTER":261.1405,"MEAN_ANOMALY":63.3242,"EPHEMERIS_TYPE":0,"CLASSIFICATION_TYPE":"U","NORAD_CAT_ID":67514,"ELEMENT_SET_NO":999,"REV_AT_EPOCH":519,"BSTAR":-0.049892892,"MEAN_MOTION_DOT":-0.01922592,"MEAN_MOTION_DDOT":0},{"OBJECT_NAME":"STARLINK-36543","OBJECT_ID":"2026-012Y","EPOCH":"2026-02-13T22:00:01.999584","MEAN_MOTION":15.42784684,"ECCENTRICITY":0.00014015,"INCLINATION":43.0001,"RA_OF_ASC_NODE":88.9846,"ARG_OF_PERICENTER":259.6915,"MEAN_ANOMALY":51.5999,"EPHEMERIS_TYPE":0,"CLASSIFICATION_TYPE":"U","NORAD_CAT_ID":67515,"ELEMENT_SET_NO":999,"REV_AT_EPOCH":519,"BSTAR":-0.047384162,"MEAN_MOTION_DOT":-0.01902382,"MEAN_MOTION_DDOT":0},{"OBJECT_NAME":"STARLINK-36537","OBJECT_ID":"2026-012Z","EPOCH":"2026-02-13T22:00:01.999584","MEAN_MOTION":15.42860942,"ECCENTRICITY":0.00017663,"INCLINATION":43.001,"RA_OF_ASC_NODE":88.8128,"ARG_OF_PERICENTER":267.8128,"MEAN_ANOMALY":112.1593,"EPHEMERIS_TYPE":0,"CLASSIFICATION_TYPE":"U","NORAD_CAT_ID":67516,"ELEMENT_SET_NO":999,"REV_AT_EPOCH":519,"BSTAR":-0.047231561,"MEAN_MOTION_DOT":-0.01901483,"MEAN_MOTION_DDOT":0},{"OBJECT_NAME":"STARLINK-36544","OBJECT_ID":"2026-012AA","EPOCH":"2026-02-13T22:00:01.999584","MEAN_MOTION":15.41059674,"ECCENTRICITY":0.00014879,"INCLINATION":43.001,"RA_OF_ASC_NODE":88.8027,"ARG_OF_PERICENTER":266.0109,"MEAN_ANOMALY":117.9826,"EPHEMERIS_TYPE":0,"CLASSIFICATION_TYPE":"U","NORAD_CAT_ID":67517,"ELEMENT_SET_NO":999,"REV_AT_EPOCH":525,"BSTAR":-0.050923286,"MEAN_MOTION_DOT":-0.0192605,"MEAN_MOTION_DDOT":0},{"OBJECT_NAME":"STARLINK-36412","OBJECT_ID":"2026-012AB","EPOCH":"2026-02-13T22:00:01.999584","MEAN_MOTION":15.45926415,"ECCENTRICITY":0.00016153,"INCLINATION":43.0002,"RA_OF_ASC_NODE":88.7233,"ARG_OF_PERICENTER":274.6468,"MEAN_ANOMALY":141.8395,"EPHEMERIS_TYPE":0,"CLASSIFICATION_TYPE":"U","NORAD_CAT_ID":67518,"ELEMENT_SET_NO":999,"REV_AT_EPOCH":519,"BSTAR":-0.041859282,"MEAN_MOTION_DOT":-0.01875218,"MEAN_MOTION_DDOT":0},{"OBJECT_NAME":"STARLINK-36415","OBJECT_ID":"2026-012AC","EPOCH":"2026-02-13T22:00:01.999584","MEAN_MOTION":15.46802288,"ECCENTRICITY":0.00017083,"INCLINATION":43.0006,"RA_OF_ASC_NODE":88.6833,"ARG_OF_PERICENTER":276.318,"MEAN_ANOMALY":155.151,"EPHEMERIS_TYPE":0,"CLASSIFICATION_TYPE":"U","NORAD_CAT_ID":67519,"ELEMENT_SET_NO":999,"REV_AT_EPOCH":540,"BSTAR":-0.041011236,"MEAN_MOTION_DOT":-0.01892283,"MEAN_MOTION_DDOT":0},{"OBJECT_NAME":"STARLINK-36547","OBJECT_ID":"2026-012AD","EPOCH":"2026-02-13T22:00:01.999584","MEAN_MOTION":15.45465412,"ECCENTRICITY":0.00015732,"INCLINATION":43.0005,"RA_OF_ASC_NODE":88.7518,"ARG_OF_PERICENTER":271.9873,"MEAN_ANOMALY":133.0565,"EPHEMERIS_TYPE":0,"CLASSIFICATION_TYPE":"U","NORAD_CAT_ID":67520,"ELEMENT_SET_NO":999,"REV_AT_EPOCH":519,"BSTAR":-0.042960766,"MEAN_MOTION_DOT":-0.0189212,"MEAN_MOTION_DDOT":0},{"OBJECT_NAME":"STARLINK-36444","OBJECT_ID":"2026-012AE","EPOCH":"2026-02-13T22:00:01.999584","MEAN_MOTION":15.46931795,"ECCENTRICITY":0.00013696,"INCLINATION":43.0006,"RA_OF_ASC_NODE":88.863,"ARG_OF_PERICENTER":265.1375,"MEAN_ANOMALY":94.5075,"EPHEMERIS_TYPE":0,"CLASSIFICATION_TYPE":"U","NORAD_CAT_ID":67521,"ELEMENT_SET_NO":999,"REV_AT_EPOCH":519,"BSTAR":-0.041771444,"MEAN_MOTION_DOT":-0.01931409,"MEAN_MOTION_DDOT":0},{"OBJECT_NAME":"STARLINK-36587","OBJECT_ID":"2026-014A","EPOCH":"2026-02-13T20:59:29.143968","MEAN_MOTION":15.80939177,"ECCENTRICITY":0.00014918,"INCLINATION":97.2833,"RA_OF_ASC_NODE":288.6208,"ARG_OF_PERICENTER":109.0593,"MEAN_ANOMALY":251.0837,"EPHEMERIS_TYPE":0,"CLASSIFICATION_TYPE":"U","NORAD_CAT_ID":67532,"ELEMENT_SET_NO":999,"REV_AT_EPOCH":482,"BSTAR":0.0012730058,"MEAN_MOTION_DOT":0.00252298,"MEAN_MOTION_DDOT":0},{"OBJECT_NAME":"STARLINK-36417","OBJECT_ID":"2026-014B","EPOCH":"2026-02-13T18:38:23.771328","MEAN_MOTION":15.75261971,"ECCENTRICITY":0.00015721,"INCLINATION":97.2844,"RA_OF_ASC_NODE":288.4472,"ARG_OF_PERICENTER":90.1879,"MEAN_ANOMALY":269.9567,"EPHEMERIS_TYPE":0,"CLASSIFICATION_TYPE":"U","NORAD_CAT_ID":67533,"ELEMENT_SET_NO":999,"REV_AT_EPOCH":480,"BSTAR":0.0011092672,"MEAN_MOTION_DOT":0.00169169,"MEAN_MOTION_DDOT":0},{"OBJECT_NAME":"STARLINK-36576","OBJECT_ID":"2026-014C","EPOCH":"2026-02-13T22:28:38.717472","MEAN_MOTION":15.80880391,"ECCENTRICITY":0.00015281,"INCLINATION":97.2838,"RA_OF_ASC_NODE":288.6904,"ARG_OF_PERICENTER":96.0544,"MEAN_ANOMALY":264.0898,"EPHEMERIS_TYPE":0,"CLASSIFICATION_TYPE":"U","NORAD_CAT_ID":67534,"ELEMENT_SET_NO":999,"REV_AT_EPOCH":483,"BSTAR":0.00080155844,"MEAN_MOTION_DOT":0.00156642,"MEAN_MOTION_DDOT":0}]
